0 CZ-2D R/B
1 28738U 05024B   13281.51072821  .00001985  00000-0  14474-3 0  5925
2 28738 097.6647 313.9507 0012485 297.7527 062.2433 15.04826120452590
0 CZ-2D R/B
1 28738U 05024B   13282.70762851  .00001852  00000-0  13534-3 0  5936
2 28738 097.6647 315.1385 0012406 293.1744 066.8175 15.04839675452774
0 CZ-2D R/B
1 28738U 05024B   13284.17049339  .00002903  00000-0  20954-3 0  5941
2 28738 097.6651 316.5896 0012399 288.6829 071.3050 15.04842666452996
0 CZ-2D R/B
1 28738U 05024B   13285.83283327  .00002304  00000-0  16725-3 0  5959
2 28738 097.6649 318.2394 0012250 282.2169 077.7685 15.04850906453247
0 CZ-2D R/B
1 28738U 05024B   13287.16269850  .00002779  00000-0  20076-3 0  5963
2 28738 097.6644 319.5593 0012157 276.9594 083.0249 15.04855945453441
0 CZ-2D R/B
1 28738U 05024B   13288.82502159  .00003025  00000-0  21802-3 0  5973
2 28738 097.6636 321.2090 0012051 270.3315 089.6530 15.04869777453696
0 CZ-2D R/B
1 28738U 05024B   13290.15487116  .00003106  00000-0  22374-3 0  5983
2 28738 097.6630 322.5287 0012082 265.0473 094.9374 15.04876222453892
0 CZ-2D R/B
1 28738U 05024B   13291.48471437  .00002616  00000-0  18912-3 0  5998
2 28738 097.6624 323.8482 0012149 259.7922 100.1935 15.04884064454098
0 CZ-2D R/B
1 28738U 05024B   13292.81455077  .00002621  00000-0  18942-3 0  6000
2 28738 097.6619 325.1676 0012290 254.8194 105.1673 15.04889739454296
0 CZ-2D R/B
1 28738U 05024B   13294.14438243  .00002800  00000-0  20197-3 0  6019
2 28738 097.6616 326.4869 0012459 250.0215 109.9670 15.04895005454494
0 CZ-2D R/B
1 28738U 05024B   13295.47420935  .00002954  00000-0  21279-3 0  6028
2 28738 097.6613 327.8061 0012602 245.2072 114.7843 15.04901157454691
